{"type": "FeatureCollection", "features": [{"type": "Feature", "properties": {"id": "A01", "nombre": "Lavala Lockers", "operador": "Lavala Lockers", "direccion": "Calle Ríos Rosas 8, 29007 Málaga", "tipo": "comercio", "anio": 2024, "foto": "", "pie_foto": ""}, "geometry": {"type": "Point", "coordinates": [-4.4296213, 36.7198293]}}, {"type": "Feature", "properties": {"id": "A02", "nombre": "M Lockers Málaga", "operador": "M Lockers", "direccion": "Calle Fernán Núñez 2, 29002 Málaga", "tipo": "comercio", "anio": 2024, "foto": "", "pie_foto": ""}, "geometry": {"type": "Point", "coordinates": [-4.4298246, 36.7106616]}}, {"type": "Feature", "properties": {"id": "A03", "nombre": "Larios Street", "operador": "Bounce", "direccion": "Calle Compañía 22, 29008 Málaga", "tipo": "comercio", "anio": null, "foto": "", "pie_foto": ""}, "geometry": {"type": "Point", "coordinates": [-4.4237269, 36.7213924]}}, {"type": "Feature", "properties": {"id": "A04", "nombre": "Malaga Museum", "operador": "Bounce", "direccion": "Calle Císter 13, 29015 Málaga", "tipo": "comercio", "anio": 2022, "foto": "", "pie_foto": ""}, "geometry": {"type": "Point", "coordinates": [-4.4179008, 36.7205288]}}, {"type": "Feature", "properties": {"id": "A05", "nombre": "Malaga Station 2", "operador": "Bounce", "direccion": "Calle Explanada de la Estación 4, 29002 Málaga", "tipo": "comercio", "anio": null, "foto": "", "pie_foto": ""}, "geometry": {"type": "Point", "coordinates": [-4.4306851, 36.712472]}}, {"type": "Feature", "properties": {"id": "A06", "nombre": "Near MAUS", "operador": "Bounce", "direccion": "Calle Tomás Heredia 8, 29001 Málaga", "tipo": "comercio", "anio": null, "foto": "", "pie_foto": ""}, "geometry": {"type": "Point", "coordinates": [-4.4233127, 36.7164495]}}, {"type": "Feature", "properties": {"id": "A07", "nombre": "Parroquia Santiago", "operador": "Bounce", "direccion": "Calle Granada 47, 29012 Málaga", "tipo": "comercio", "anio": 2022, "foto": "", "pie_foto": ""}, "geometry": {"type": "Point", "coordinates": [-4.4186328, 36.7220683]}}, {"type": "Feature", "properties": {"id": "A08", "nombre": "Picasso Birthplace - Gómez Pallete", "operador": "Bounce", "direccion": "Calle Gómez Pallete 5, 29012 Málaga", "tipo": "comercio", "anio": 2022, "foto": "", "pie_foto": ""}, "geometry": {"type": "Point", "coordinates": [-4.4179818, 36.7241159]}}, {"type": "Feature", "properties": {"id": "A09", "nombre": "Alameda Principal - Norte", "operador": "Radical Storage", "direccion": "Alameda Principal 37, 29001 Málaga", "tipo": "comercio", "anio": null, "foto": "", "pie_foto": ""}, "geometry": {"type": "Point", "coordinates": [-4.4241158, 36.7168846]}}, {"type": "Feature", "properties": {"id": "A10", "nombre": "Atarazanas Metro Station", "operador": "Radical Storage", "direccion": "Calle Sagasta 12, 29005 Málaga", "tipo": "comercio", "anio": null, "foto": "", "pie_foto": ""}, "geometry": {"type": "Point", "coordinates": [-4.4244193, 36.7185847]}}, {"type": "Feature", "properties": {"id": "A11", "nombre": "CAC Málaga", "operador": "Radical Storage", "direccion": "Calle San Lorenzo 33, 29001 Málaga", "tipo": "comercio", "anio": null, "foto": "", "pie_foto": ""}, "geometry": {"type": "Point", "coordinates": [-4.4241842, 36.7150491]}}, {"type": "Feature", "properties": {"id": "A12", "nombre": "Carretera de Coín", "operador": "Radical Storage", "direccion": "Carretera de Coín 39, 29140 Churriana, Málaga", "tipo": "comercio", "anio": null, "foto": "", "pie_foto": ""}, "geometry": {"type": "Point", "coordinates": [-4.4973787, 36.660018]}}, {"type": "Feature", "properties": {"id": "A13", "nombre": "El Perchel", "operador": "Radical Storage", "direccion": "Calle la Serna 10, 29002 Málaga", "tipo": "comercio", "anio": null, "foto": "", "pie_foto": ""}, "geometry": {"type": "Point", "coordinates": [-4.4296252, 36.7143039]}}, {"type": "Feature", "properties": {"id": "A14", "nombre": "Ferry Terminal", "operador": "Radical Storage", "direccion": "Calle Trinidad Grund 5A, 29001 Málaga", "tipo": "comercio", "anio": null, "foto": "", "pie_foto": ""}, "geometry": {"type": "Point", "coordinates": [-4.421274, 36.7172933]}}, {"type": "Feature", "properties": {"id": "A15", "nombre": "La Trinidad", "operador": "Radical Storage", "direccion": "Calle Martínez Maldonado 4, 29011 Málaga", "tipo": "comercio", "anio": null, "foto": "", "pie_foto": ""}, "geometry": {"type": "Point", "coordinates": [-4.4321705, 36.7215579]}}, {"type": "Feature", "properties": {"id": "A16", "nombre": "Malaga Museum", "operador": "Radical Storage", "direccion": "Calle Pedro de Toledo 2, 29015 Málaga", "tipo": "comercio", "anio": null, "foto": "", "pie_foto": ""}, "geometry": {"type": "Point", "coordinates": [-4.4181588, 36.7207751]}}, {"type": "Feature", "properties": {"id": "A17", "nombre": "Malaga's Historic Centre", "operador": "Radical Storage", "direccion": "Calle Sánchez Pastor 4, 29015 Málaga", "tipo": "comercio", "anio": null, "foto": "", "pie_foto": ""}, "geometry": {"type": "Point", "coordinates": [-4.4209996, 36.7213015]}}, {"type": "Feature", "properties": {"id": "A18", "nombre": "Museo Carmen Thyssen", "operador": "Radical Storage", "direccion": "Calle Puerta del Mar 10, 29005 Málaga", "tipo": "comercio", "anio": null, "foto": "", "pie_foto": ""}, "geometry": {"type": "Point", "coordinates": [-4.4230343, 36.7187]}}, {"type": "Feature", "properties": {"id": "A19", "nombre": "Málaga Railway Station", "operador": "Radical Storage", "direccion": "Pasaje Esau 4, 29006 Málaga", "tipo": "comercio", "anio": null, "foto": "", "pie_foto": ""}, "geometry": {"type": "Point", "coordinates": [-4.4358107, 36.7119612]}}, {"type": "Feature", "properties": {"id": "A20", "nombre": "Málaga-María Zambrano Station", "operador": "Radical Storage", "direccion": "Calle Cuarteles 41, 29002 Málaga", "tipo": "comercio", "anio": null, "foto": "", "pie_foto": ""}, "geometry": {"type": "Point", "coordinates": [-4.4290569, 36.7126779]}}, {"type": "Feature", "properties": {"id": "A21", "nombre": "Near Málaga Railway Station", "operador": "Radical Storage", "direccion": "Calle Edison, 29006 Málaga", "tipo": "comercio", "anio": null, "foto": "", "pie_foto": ""}, "geometry": {"type": "Point", "coordinates": [-4.4358874, 36.7128127]}}, {"type": "Feature", "properties": {"id": "A22", "nombre": "Old Town", "operador": "Radical Storage", "direccion": "Calle Santa María 16, 29015 Málaga", "tipo": "comercio", "anio": null, "foto": "", "pie_foto": ""}, "geometry": {"type": "Point", "coordinates": [-4.4208158, 36.7210177]}}, {"type": "Feature", "properties": {"id": "A23", "nombre": "Parque de Málaga", "operador": "Radical Storage", "direccion": "Paseo de Reding 11, 29016 Málaga", "tipo": "comercio", "anio": null, "foto": "", "pie_foto": ""}, "geometry": {"type": "Point", "coordinates": [-4.4114387, 36.7211008]}}, {"type": "Feature", "properties": {"id": "A24", "nombre": "Parroquia Santiago Apóstol", "operador": "Radical Storage", "direccion": "Calle Granada 67, 29015 Málaga", "tipo": "comercio", "anio": null, "foto": "", "pie_foto": ""}, "geometry": {"type": "Point", "coordinates": [-4.4176947, 36.7224928]}}, {"type": "Feature", "properties": {"id": "A25", "nombre": "Playa La Malagueta", "operador": "Radical Storage", "direccion": "Calle Maestranza 27, 29016 Málaga", "tipo": "comercio", "anio": null, "foto": "", "pie_foto": ""}, "geometry": {"type": "Point", "coordinates": [-4.4081591, 36.7196626]}}, {"type": "Feature", "properties": {"id": "A26", "nombre": "Plaza de la Merced", "operador": "Radical Storage", "direccion": "Calle Gómez Pallete 3, 29012 Málaga", "tipo": "comercio", "anio": null, "foto": "", "pie_foto": ""}, "geometry": {"type": "Point", "coordinates": [-4.4178692, 36.724016]}}]}