{"type": "FeatureCollection", "features": [{"type": "Feature", "properties": {"id": "C01", "nombre": "LOCK & enjoy! María Zambrano", "operador": "LOCK & enjoy!", "direccion": "Calle Héroe de Sostoa 12, 29002 Málaga", "tipo": "consigna", "anio": 2023, "anio_cierre": null, "cerrada": false, "foco": false, "foto": "", "pie_foto": ""}, "geometry": {"type": "Point", "coordinates": [-4.4323596, 36.7105509]}}, {"type": "Feature", "properties": {"id": "C02", "nombre": "Málaga Center Lockers", "operador": "Málaga Center Lockers", "direccion": "Calle Cárcer 1, 29008 Málaga", "tipo": "consigna", "anio": 2022, "anio_cierre": null, "cerrada": false, "foco": false, "foto": "", "pie_foto": ""}, "geometry": {"type": "Point", "coordinates": [-4.4200583, 36.7234315]}}, {"type": "Feature", "properties": {"id": "C03", "nombre": "City Lockers Málaga", "operador": "City Lockers", "direccion": "Calle Carretería 49, 29008 Málaga", "tipo": "consigna", "anio": 2018, "anio_cierre": null, "cerrada": false, "foco": true, "foto": "", "pie_foto": ""}, "geometry": {"type": "Point", "coordinates": [-4.4234536, 36.7234838]}}, {"type": "Feature", "properties": {"id": "C04", "nombre": "Easy Lockers Málaga", "operador": "Easy Lockers", "direccion": "Calle Comedias 22, 29008 Málaga", "tipo": "consigna", "anio": 2024, "anio_cierre": null, "cerrada": false, "foco": false, "foto": "", "pie_foto": ""}, "geometry": {"type": "Point", "coordinates": [-4.421189, 36.7230954]}}, {"type": "Feature", "properties": {"id": "C05", "nombre": "LOCK & enjoy! Alameda Principal", "operador": "LOCK & enjoy!", "direccion": "Calle Panaderos 24, 29005 Málaga", "tipo": "consigna", "anio": 2025, "anio_cierre": null, "cerrada": false, "foco": false, "foto": "", "pie_foto": ""}, "geometry": {"type": "Point", "coordinates": [-4.425223, 36.7175051]}}, {"type": "Feature", "properties": {"id": "C06", "nombre": "LOCK & enjoy! Carretería", "operador": "LOCK & enjoy!", "direccion": "Calle Dos Aceras 8, 29012 Málaga", "tipo": "consigna", "anio": 2024, "anio_cierre": null, "cerrada": false, "foco": false, "foto": "", "pie_foto": ""}, "geometry": {"type": "Point", "coordinates": [-4.4206755, 36.7246688]}}, {"type": "Feature", "properties": {"id": "C07", "nombre": "LOCK & enjoy! El Perchel", "operador": "LOCK & enjoy!", "direccion": "Calle Ancha del Carmen 37, 29002 Málaga", "tipo": "consigna", "anio": 2026, "anio_cierre": null, "cerrada": false, "foco": false, "foto": "", "pie_foto": ""}, "geometry": {"type": "Point", "coordinates": [-4.4283074, 36.7146697]}}, {"type": "Feature", "properties": {"id": "C08", "nombre": "Lock & Store - Cañón", "operador": "Lock & Store", "direccion": "Calle Cañón 7, 29015 Málaga", "tipo": "consigna", "anio": 2025, "anio_cierre": null, "cerrada": false, "foco": false, "foto": "", "pie_foto": ""}, "geometry": {"type": "Point", "coordinates": [-4.4186915, 36.7201566]}}, {"type": "Feature", "properties": {"id": "C09", "nombre": "Lock & Store - Esparteros", "operador": "Lock & Store", "direccion": "Calle Esparteros 9, 29008 Málaga", "tipo": "consigna", "anio": 2024, "anio_cierre": null, "cerrada": false, "foco": false, "foto": "", "pie_foto": ""}, "geometry": {"type": "Point", "coordinates": [-4.4223216, 36.7190477]}}, {"type": "Feature", "properties": {"id": "C10", "nombre": "Lock and Move - Andrés Pérez", "operador": "Lock and Move", "direccion": "Calle Andrés Pérez 1, 29008 Málaga", "tipo": "consigna", "anio": 2025, "anio_cierre": null, "cerrada": false, "foco": true, "foto": "", "pie_foto": ""}, "geometry": {"type": "Point", "coordinates": [-4.4225863, 36.722557]}}, {"type": "Feature", "properties": {"id": "C11", "nombre": "Lock and Move - Comedias", "operador": "Lock and Move", "direccion": "Calle Comedias 4, 29008 Málaga", "tipo": "consigna", "anio": 2025, "anio_cierre": 2026, "cerrada": true, "foco": false, "foto": "", "pie_foto": ""}, "geometry": {"type": "Point", "coordinates": [-4.4221223, 36.7224193]}}, {"type": "Feature", "properties": {"id": "C12", "nombre": "Lock and Relax", "operador": "Lock and Relax", "direccion": "Calle Casas de Campos 22, 29001 Málaga", "tipo": "consigna", "anio": 2017, "anio_cierre": null, "cerrada": false, "foco": false, "foto": "", "pie_foto": ""}, "geometry": {"type": "Point", "coordinates": [-4.4238524, 36.7159774]}}, {"type": "Feature", "properties": {"id": "C13", "nombre": "Locker in the City - Soho", "operador": "Locker in the City", "direccion": "Calle Barroso 18, 29001 Málaga", "tipo": "consigna", "anio": 2024, "anio_cierre": null, "cerrada": false, "foco": false, "foto": "", "pie_foto": ""}, "geometry": {"type": "Point", "coordinates": [-4.4239146, 36.7155502]}}, {"type": "Feature", "properties": {"id": "C14", "nombre": "Lucky Lockers Málaga", "operador": "Lucky Lockers (Fama Lockers SL)", "direccion": "Plaza de los Mártires Ciriaco y Paula 9, 29008 Málaga", "tipo": "consigna", "anio": 2024, "anio_cierre": null, "cerrada": false, "foco": true, "foto": "", "pie_foto": ""}, "geometry": {"type": "Point", "coordinates": [-4.4225771, 36.7224558]}}, {"type": "Feature", "properties": {"id": "C15", "nombre": "My Locker Málaga", "operador": "My Locker", "direccion": "Calle Nosquera 2, 29008 Málaga", "tipo": "consigna", "anio": 2024, "anio_cierre": null, "cerrada": false, "foco": true, "foto": "", "pie_foto": ""}, "geometry": {"type": "Point", "coordinates": [-4.4219013, 36.722876]}}, {"type": "Feature", "properties": {"id": "C16", "nombre": "Stow Your Bags - María Zambrano", "operador": "Stow Your Bags", "direccion": "Calle Jovellanos 5, 29002 Málaga", "tipo": "consigna", "anio": 2023, "anio_cierre": null, "cerrada": false, "foco": false, "foto": "", "pie_foto": ""}, "geometry": {"type": "Point", "coordinates": [-4.4302794, 36.7127509]}}, {"type": "Feature", "properties": {"id": "C17", "nombre": "The Lockers - Alameda de Colón", "operador": "The Lockers Málaga", "direccion": "Alameda de Colón 18, 29001 Málaga", "tipo": "consigna", "anio": 2024, "anio_cierre": null, "cerrada": false, "foco": false, "foto": "", "pie_foto": ""}, "geometry": {"type": "Point", "coordinates": [-4.4246655, 36.714764]}}, {"type": "Feature", "properties": {"id": "C18", "nombre": "The Lockers - Calderería", "operador": "The Lockers Málaga", "direccion": "Calle Calderería 4, 29008 Málaga", "tipo": "consigna", "anio": 2023, "anio_cierre": null, "cerrada": false, "foco": false, "foto": "", "pie_foto": ""}, "geometry": {"type": "Point", "coordinates": [-4.4205154, 36.7221979]}}, {"type": "Feature", "properties": {"id": "C19", "nombre": "The Lockers - Carretería 24", "operador": "The Lockers Málaga", "direccion": "Calle Carretería 24, 29008 Málaga", "tipo": "consigna", "anio": 2023, "anio_cierre": null, "cerrada": false, "foco": false, "foto": "", "pie_foto": ""}, "geometry": {"type": "Point", "coordinates": [-4.4245389, 36.7222364]}}, {"type": "Feature", "properties": {"id": "C20", "nombre": "The Lockers - Carretería 94", "operador": "The Lockers Málaga", "direccion": "Calle Carretería 94, 29008 Málaga", "tipo": "consigna", "anio": 2023, "anio_cierre": 2026, "cerrada": true, "foco": false, "foto": "", "pie_foto": ""}, "geometry": {"type": "Point", "coordinates": [-4.4209453, 36.7242664]}}, {"type": "Feature", "properties": {"id": "C21", "nombre": "The Lockers - La Victoria", "operador": "The Lockers Málaga", "direccion": "Calle La Victoria 45, 29012 Málaga", "tipo": "consigna", "anio": 2025, "anio_cierre": null, "cerrada": false, "foco": false, "foto": "", "pie_foto": ""}, "geometry": {"type": "Point", "coordinates": [-4.4151427, 36.72522]}}, {"type": "Feature", "properties": {"id": "C22", "nombre": "The Lockers - Mariblanca", "operador": "The Lockers Málaga", "direccion": "Calle Mariblanca 16, 29012 Málaga", "tipo": "consigna", "anio": 2025, "anio_cierre": null, "cerrada": false, "foco": false, "foto": "", "pie_foto": ""}, "geometry": {"type": "Point", "coordinates": [-4.41985, 36.7247307]}}, {"type": "Feature", "properties": {"id": "C23", "nombre": "The Lockers - Mármoles", "operador": "The Lockers Málaga", "direccion": "Calle Mármoles 11, 29007 Málaga", "tipo": "consigna", "anio": 2024, "anio_cierre": null, "cerrada": false, "foco": false, "foto": "", "pie_foto": ""}, "geometry": {"type": "Point", "coordinates": [-4.426684, 36.721622]}}, {"type": "Feature", "properties": {"id": "C24", "nombre": "The Lockers - Ollerías", "operador": "The Lockers Málaga", "direccion": "Calle Ollerías 14, 29012 Málaga", "tipo": "consigna", "anio": 2023, "anio_cierre": null, "cerrada": false, "foco": false, "foto": "", "pie_foto": ""}, "geometry": {"type": "Point", "coordinates": [-4.4218623, 36.7246464]}}, {"type": "Feature", "properties": {"id": "C25", "nombre": "The Lockers - San Juan", "operador": "The Lockers Málaga", "direccion": "Calle San Juan 16, 29005 Málaga", "tipo": "consigna", "anio": 2023, "anio_cierre": null, "cerrada": false, "foco": false, "foto": "", "pie_foto": ""}, "geometry": {"type": "Point", "coordinates": [-4.4236753, 36.7204286]}}, {"type": "Feature", "properties": {"id": "C26", "nombre": "The Lockers - San Juan de Letrán", "operador": "The Lockers Málaga", "direccion": "Calle San Juan de Letrán 2, 29012 Málaga", "tipo": "consigna", "anio": 2023, "anio_cierre": null, "cerrada": false, "foco": false, "foto": "", "pie_foto": ""}, "geometry": {"type": "Point", "coordinates": [-4.4179406, 36.7238485]}}, {"type": "Feature", "properties": {"id": "C27", "nombre": "The Lockerspot Málaga", "operador": "The Lockerspot", "direccion": "Calle Periodista Leovigildo Caballero Gutiérrez 2, 29016 Málaga", "tipo": "consigna", "anio": 2024, "anio_cierre": null, "cerrada": false, "foco": false, "foto": "", "pie_foto": ""}, "geometry": {"type": "Point", "coordinates": [-4.4109413, 36.7195969]}}, {"type": "Feature", "properties": {"id": "C28", "nombre": "Locker in the City - Calle Larios", "operador": "Locker in the City", "direccion": "Plaza de las Flores 4, Local 1, 29005 Málaga", "tipo": "consigna", "anio": 2025, "anio_cierre": null, "cerrada": false, "foco": false, "foto": "", "pie_foto": ""}, "geometry": {"type": "Point", "coordinates": [-4.42224, 36.720041]}}, {"type": "Feature", "properties": {"id": "C29", "nombre": "Locker in the City - Museo Picasso / Alcazaba", "operador": "Locker in the City", "direccion": "Calle Madre de Dios 33, 29012 Málaga", "tipo": "consigna", "anio": 2026, "anio_cierre": null, "cerrada": false, "foco": false, "foto": "", "pie_foto": ""}, "geometry": {"type": "Point", "coordinates": [-4.419294, 36.724404]}}, {"type": "Feature", "properties": {"id": "C30", "nombre": "The Lockers - Madre de Dios", "operador": "The Lockers Málaga", "direccion": "Calle Madre de Dios 41, 29012 Málaga", "tipo": "consigna", "anio": 2026, "anio_cierre": null, "cerrada": false, "foco": false, "foto": "", "pie_foto": ""}, "geometry": {"type": "Point", "coordinates": [-4.419516, 36.724609]}}, {"type": "Feature", "properties": {"id": "C31", "nombre": "Lock & Be Free - Álamos", "operador": "Lock & Be Free", "direccion": "Calle Álamos 32, 29012 Málaga", "tipo": "consigna", "anio": 2025, "anio_cierre": null, "cerrada": false, "foco": false, "foto": "", "pie_foto": ""}, "geometry": {"type": "Point", "coordinates": [-4.4188385, 36.7233686]}}, {"type": "Feature", "properties": {"id": "C32", "nombre": "MZ Lockers", "operador": "MZ Lockers", "direccion": "Pasaje Mendívil 2, Local 21, 29002 Málaga", "tipo": "consigna", "anio": 2026, "anio_cierre": null, "cerrada": false, "foco": false, "foto": "", "pie_foto": ""}, "geometry": {"type": "Point", "coordinates": [-4.4309357, 36.7134684]}}, {"type": "Feature", "properties": {"id": "C33", "nombre": "Lock&Lock Málaga - Compañía", "operador": "Lock&Lock Málaga", "direccion": "Calle Compañía 34, 29008 Málaga", "tipo": "consigna", "anio": 2025, "anio_cierre": null, "cerrada": false, "foco": false, "foto": "", "pie_foto": ""}, "geometry": {"type": "Point", "coordinates": [-4.4242524, 36.7214058]}}, {"type": "Feature", "properties": {"id": "C34", "nombre": "City Lockers Málaga (local original, La Victoria)", "operador": "City Lockers", "direccion": "Calle Victoria 26, 29012 Málaga", "tipo": "consigna", "anio": 2017, "anio_cierre": 2018, "cerrada": true, "foco": false, "foto": "", "pie_foto": ""}, "geometry": {"type": "Point", "coordinates": [-4.4160786, 36.7238681]}}]}